<?xml version="1.0" encoding="UTF-8"?>
<kml xmlns="http://www.opengis.net/kml/2.2" xmlns:gx="http://www.google.com/kml/ext/2.2" xmlns:kml="http://www.opengis.net/kml/2.2" xmlns:atom="http://www.w3.org/2005/Atom">
<Document id="1TlMhwKDr-MZdG_gLnoth8iN-C1LJs0rA">
	<name>Untitled map</name>
	<gx:CascadingStyle kml:id="__managed_style_0B078EE5A141E69C4D94_highlight">
		<Style>
			<IconStyle>
				<scale>1.2</scale>
				<Icon>
					<href>https://earth.google.com/earth/document/icon?color=1976d2&amp;id=2000&amp;scale=4</href>
				</Icon>
				<hotSpot x="64" y="128" xunits="pixels" yunits="insetPixels"/>
			</IconStyle>
			<LabelStyle>
			</LabelStyle>
			<LineStyle>
				<color>ff2dc0fb</color>
				<width>6</width>
			</LineStyle>
			<PolyStyle>
				<color>40ffffff</color>
			</PolyStyle>
			<BalloonStyle>
			</BalloonStyle>
		</Style>
	</gx:CascadingStyle>
	<gx:CascadingStyle kml:id="__managed_style_0B078EE5A141E69C4D94_normal">
		<Style>
			<IconStyle>
				<Icon>
					<href>https://earth.google.com/earth/document/icon?color=1976d2&amp;id=2000&amp;scale=4</href>
				</Icon>
				<hotSpot x="64" y="128" xunits="pixels" yunits="insetPixels"/>
			</IconStyle>
			<LabelStyle>
			</LabelStyle>
			<LineStyle>
				<color>ff2dc0fb</color>
				<width>4</width>
			</LineStyle>
			<PolyStyle>
				<color>40ffffff</color>
			</PolyStyle>
			<BalloonStyle>
			</BalloonStyle>
		</Style>
	</gx:CascadingStyle>
	<StyleMap id="__managed_style_0B078EE5A141E69C4D94">
		<Pair>
			<key>normal</key>
			<styleUrl>#__managed_style_0B078EE5A141E69C4D94_normal</styleUrl>
		</Pair>
		<Pair>
			<key>highlight</key>
			<styleUrl>#__managed_style_0B078EE5A141E69C4D94_highlight</styleUrl>
		</Pair>
	</StyleMap>
	<Placemark id="04CCB26B8741E69C4D79">
		<name>Untitled polygon</name>
		<LookAt>
			<longitude>76.94434165704605</longitude>
			<latitude>10.89944927475996</latitude>
			<altitude>355.3227355967124</altitude>
			<heading>350.7368409737545</heading>
			<tilt>0</tilt>
			<gx:fovy>35</gx:fovy>
			<range>339.2276223607769</range>
			<altitudeMode>absolute</altitudeMode>
		</LookAt>
		<styleUrl>#__managed_style_0B078EE5A141E69C4D94</styleUrl>
		<Polygon>
			<outerBoundaryIs>
				<LinearRing>
					<coordinates>
						76.94441564505428,10.89938002071058,0 76.94454444294527,10.89941015023437,0 76.94450567983834,10.89956248996647,0 76.94438472022296,10.89953490649787,0 76.94441564505428,10.89938002071058,0 
					</coordinates>
				</LinearRing>
			</outerBoundaryIs>
		</Polygon>
	</Placemark>
</Document>
</kml>
