<?xml version="1.0" encoding="UTF-8"?>
<kml xmlns="http://www.opengis.net/kml/2.2">
<Document>
	<name>SF_79</name>
	<Placemark>
		<name>SF_79</name>
		<Polygon>
			<outerBoundaryIs>
				<LinearRing>
					<coordinates>77.087237,10.900074,0 77.088193,10.900035,0 77.088577,10.89875,0 77.088768,10.898108,0 77.088544,10.897993,0 77.088125,10.89794,0 77.087726,10.89789,0 77.087443,10.897854,0 77.087178,10.897821,0 77.087173,10.897882,0 77.087009,10.899948,0 77.087237,10.900074,0</coordinates>
				</LinearRing>
			</outerBoundaryIs>
		</Polygon>
	</Placemark>
</Document>
</kml>
