<?xml version="1.0" encoding="UTF-8"?>
<kml xmlns="http://www.opengis.net/kml/2.2">
<Document>
	<name>SF_77</name>
	<Placemark>
		<name>SF_77</name>
		<Polygon>
			<outerBoundaryIs>
				<LinearRing>
					<coordinates>77.087726,10.89789,0 77.088125,10.89794,0 77.088544,10.897993,0 77.088921,10.896633,0 77.089026,10.896251,0 77.089065,10.896112,0 77.088272,10.89614,0 77.08823,10.896141,0 77.087696,10.896164,0 77.087514,10.896184,0 77.087269,10.896279,0 77.087227,10.896296,0 77.086929,10.896411,0 77.08664,10.896526,0 77.086583,10.896548,0 77.086426,10.896609,0 77.086294,10.897569,0 77.086296,10.897622,0 77.086301,10.897704,0 77.086714,10.897761,0 77.086775,10.89777,0 77.08708,10.897808,0 77.087178,10.897821,0 77.087443,10.897854,0 77.087726,10.89789,0</coordinates>
				</LinearRing>
			</outerBoundaryIs>
		</Polygon>
	</Placemark>
</Document>
</kml>
