<?xml version="1.0" encoding="UTF-8"?>
<kml xmlns="http://www.opengis.net/kml/2.2">
<Document>
	<name>SF_78</name>
	<Placemark>
		<name>SF_78</name>
		<Polygon>
			<outerBoundaryIs>
				<LinearRing>
					<coordinates>77.085914,10.897614,0 77.085417,10.897674,0 77.085489,10.898359,0 77.086236,10.898458,0 77.086519,10.898495,0 77.086854,10.898567,0 77.087114,10.898623,0 77.087167,10.897965,0 77.087178,10.897821,0 77.08708,10.897808,0 77.086775,10.89777,0 77.086714,10.897761,0 77.086301,10.897704,0 77.086296,10.897622,0 77.086294,10.897569,0 77.086103,10.897592,0 77.085914,10.897614,0</coordinates>
				</LinearRing>
			</outerBoundaryIs>
		</Polygon>
	</Placemark>
</Document>
</kml>
