<?xml version="1.0" encoding="UTF-8"?>
<kml xmlns="http://www.opengis.net/kml/2.2">
<Document>
	<name>SF_76</name>
	<Placemark>
		<name>SF_76</name>
		<Polygon>
			<outerBoundaryIs>
				<LinearRing>
					<coordinates>77.086937,10.896408,0 77.087076,10.896354,0 77.087227,10.896296,0 77.087269,10.896279,0 77.087514,10.896184,0 77.087525,10.89557,0 77.087538,10.894778,0 77.087538,10.894777,0 77.087543,10.894437,0 77.087558,10.894123,0 77.087604,10.893857,0 77.087267,10.893794,0 77.086854,10.893715,0 77.086601,10.893672,0 77.086361,10.893625,0 77.086156,10.893584,0 77.085931,10.893529,0 77.085894,10.893791,0 77.085893,10.893795,0 77.085862,10.894014,0 77.085946,10.894398,0 77.085957,10.894451,0 77.085958,10.894451,0 77.085996,10.894631,0 77.086046,10.894861,0 77.086203,10.895586,0 77.086204,10.895586,0 77.086426,10.896609,0 77.086583,10.896548,0 77.08664,10.896526,0 77.086681,10.89651,0 77.086937,10.896408,0</coordinates>
				</LinearRing>
			</outerBoundaryIs>
		</Polygon>
	</Placemark>
</Document>
</kml>
