<?xml version="1.0" encoding="UTF-8"?>
<kml xmlns="http://www.opengis.net/kml/2.2">
<Document>
	<name>SF_70</name>
	<Placemark>
		<name>SF_70</name>
		<Polygon>
			<outerBoundaryIs>
				<LinearRing>
					<coordinates>77.085931,10.893529,0 77.085825,10.893442,0 77.085314,10.89446,0 77.085114,10.894851,0 77.08509,10.894899,0 77.08483,10.895425,0 77.084526,10.895672,0 77.084648,10.895701,0 77.084692,10.895754,0 77.085238,10.896412,0 77.085417,10.897674,0 77.085914,10.897614,0 77.086103,10.897592,0 77.086294,10.897569,0 77.086426,10.896609,0 77.086204,10.895586,0 77.086046,10.894861,0 77.085946,10.894398,0 77.085862,10.894014,0 77.085931,10.893529,0</coordinates>
				</LinearRing>
			</outerBoundaryIs>
		</Polygon>
	</Placemark>
</Document>
</kml>
