<?xml version="1.0" encoding="UTF-8"?>
<kml xmlns="http://www.opengis.net/kml/2.2">
<Document>
	<name>SF_81</name>
	<Placemark>
		<name>SF_81</name>
		<Polygon>
			<outerBoundaryIs>
				<LinearRing>
					<coordinates>77.091262,10.895567,0 77.090889,10.895539,0 77.090847,10.895536,0 77.090432,10.895495,0 77.08959,10.895418,0 77.089558,10.895793,0 77.089549,10.895999,0 77.089065,10.896112,0 77.089026,10.896251,0 77.088921,10.896633,0 77.090153,10.896785,0 77.090919,10.896889,0 77.091053,10.896551,0 77.091181,10.8966,0 77.091344,10.896349,0 77.091337,10.89622,0 77.091305,10.895891,0 77.091262,10.895567,0</coordinates>
				</LinearRing>
			</outerBoundaryIs>
		</Polygon>
	</Placemark>
</Document>
</kml>
