<?xml version="1.0" encoding="UTF-8"?>
<kml xmlns="http://www.opengis.net/kml/2.2">
<Document>
	<name>SF_82</name>
	<Placemark>
		<name>SF_82</name>
		<Polygon>
			<outerBoundaryIs>
				<LinearRing>
					<coordinates>77.08974,10.894398,0 77.089557,10.894818,0 77.089429,10.89511,0 77.08959,10.895418,0 77.090432,10.895495,0 77.090847,10.895536,0 77.090889,10.895539,0 77.091262,10.895567,0 77.091616,10.894796,0 77.091693,10.894628,0 77.09185,10.894285,0 77.091983,10.893917,0 77.091683,10.893819,0 77.091102,10.89371,0 77.091146,10.89328,0 77.090095,10.893586,0 77.089913,10.894002,0 77.08974,10.894398,0</coordinates>
				</LinearRing>
			</outerBoundaryIs>
		</Polygon>
	</Placemark>
</Document>
</kml>
