<?xml version="1.0" encoding="UTF-8"?>
<kml xmlns="http://www.opengis.net/kml/2.2">
<Document>
	<name>Clean Polygon</name>
	<Placemark>
		<name>Clean Polygon</name>
		<Polygon>
			<outerBoundaryIs>
				<LinearRing>
					<coordinates>77.08541798017728,10.89766381707424,0 77.08629505622757,10.89755962984899,0 77.08630192876774,10.89769503331285,0 77.08677638291275,10.89776143846523,0 77.08717900650888,10.89781330618897,0 77.08854486863619,10.89798766172429,0 77.08876898997579,10.89810238512261,0 77.08857630816311,10.89874439168583,0 77.08872969911006,10.89875291295439,0 77.08871972072066,10.89847651887131,0 77.08985723586451,10.89831926875416,0 77.08991789119675,10.89863355570074,0 77.08998493361742,10.89891322913315,0 77.09039812215006,10.90048549100457,0 77.09220088806046,10.9004805593452,0 77.09219878963756,10.9007751978188,0 77.09245314143845,10.90148774868457,0 77.09254374338278,10.90225076025777,0 77.09060557414969,10.9020303132034,0 77.09022526429838,10.90198705531242,0 77.0902459490197,10.90116302280348,0 77.08843966233292,10.90063427934669,0 77.08826135700006,10.90044270400007,0 77.08819089800006,10.9000285540001,0 77.08723494180633,10.90006632298775,0 77.08700656103586,10.89994034494375,0 77.08711399937775,10.89861513987187,0 77.0865190528194,10.89848636957528,0 77.0854895550498,10.89834888927793,0 77.08541798017728,10.89766381707424,0</coordinates>
				</LinearRing>
			</outerBoundaryIs>
		</Polygon>
	</Placemark>
</Document>
</kml>
